NORAD_CAT_ID,OBJECT_NAME,OBJECT_TYPE,EPOCH,MEAN_MOTION,ECCENTRICITY,INCLINATION,RA_OF_ASC_NODE,ARG_OF_PERICENTER,MEAN_ANOMALY,BSTAR,MEAN_MOTION_DOT,MEAN_MOTION_DDOT,TLE_LINE0,TLE_LINE1,TLE_LINE2,SEMIMAJOR_AXIS,PERIOD,APOGEE,PERIGEE,DECAYED
52841.0,STARLINK-4065,PAYLOAD,2023-05-02 04:12:46,15.08844554,0.0001322,53.2178,34.1446,82.2751,277.8391,5.7393e-05,6.26e-06,0.0,0 STARLINK-4065,1 52841U 22062M   23122.17553425  .00000626  00000-0  57393-4 0  9999,2 52841  53.2178  34.1446 0001322  82.2751 277.8391 15.08844554 48400,6917.866,95.437,540.646,538.817,0.0
52841.0,STARLINK-4065,PAYLOAD,2023-05-02 21:42:01,15.08838472,0.0001356,53.2182,30.8732,91.3917,268.723,5.5565e-06,-1.99e-06,0.0,0 STARLINK-4065,1 52841U 22062M   23122.90417981 -.00000199  00000-0  55565-5 0  9992,2 52841  53.2182  30.8732 0001356  91.3917 268.7230 15.08838472 48513,6917.885,95.438,540.688,538.812,0.0
52841.0,STARLINK-4065,PAYLOAD,2023-05-03 02:28:10,15.08837266,0.0001138,53.218,29.9812,85.7268,274.3854,1.7132e-05,-1.5e-07,0.0,0 STARLINK-4065,1 52841U 22062M   23123.10290003 -.00000015  00000-0  17132-4 0  9993,2 52841  53.2180  29.9812 0001138  85.7268 274.3854 15.08837266 49036,6917.889,95.438,540.541,538.966,0.0
52841.0,STARLINK-4065,PAYLOAD,2023-05-03 10:25:07,15.08826139,0.0001051,53.2175,28.4947,80.0665,280.0446,-6.0967e-05,-1.258e-05,0.0,0 STARLINK-4065,1 52841U 22062M   23123.43411159 -.00001258  00000-0 -60967-4 0  9991,2 52841  53.2175  28.4947 0001051  80.0665 280.0446 15.08826139 49089,6917.923,95.438,540.515,539.061,0.0
52841.0,STARLINK-4065,PAYLOAD,2023-05-03 21:32:49,15.08823864,0.0001034,53.2179,26.4137,77.6312,282.4796,-9.6554e-05,-1.823e-05,0.0,0 STARLINK-4065,1 52841U 22062M   23123.89779873 -.00001823  00000-0 -96554-4 0  9990,2 52841  53.2179  26.4137 0001034  77.6312 282.4796 15.08823864 48663,6917.93,95.439,540.51,539.079,0.0
52841.0,STARLINK-4065,PAYLOAD,2023-05-04 10:15:53,15.08840367,0.0001142,53.2172,24.0354,90.1482,269.9641,-9.6678e-06,-4.42e-06,0.0,0 STARLINK-4065,1 52841U 22062M   23124.42770752 -.00000442  00000-0 -96678-5 0  9991,2 52841  53.2172  24.0354 0001142  90.1482 269.9641 15.08840367 49239,6917.879,95.438,540.534,538.954,0.0
52841.0,STARLINK-4065,PAYLOAD,2023-05-04 21:23:35,15.08848378,9.69e-05,53.2175,21.9545,86.7518,273.3585,0.0001413,1.962e-05,0.0,0 STARLINK-4065,1 52841U 22062M   23124.89137916  .00001962  00000-0  14130-3 0  9998,2 52841  53.2175  21.9545 0000969  86.7518 273.3585 15.08848378 48816,6917.855,95.437,540.39,539.049,0.0
52841.0,STARLINK-4065,PAYLOAD,2023-05-05 00:34:21,15.08848644,0.0001021,53.2174,21.36,93.5956,266.5153,0.00022287,3.262e-05,0.0,0 STARLINK-4065,1 52841U 22062M   23125.02385653  .00003262  00000-0  22287-3 0  9994,2 52841  53.2174  21.3600 0001021  93.5956 266.5153 15.08848644 49321,6917.854,95.437,540.425,539.013,0.0
52841.0,STARLINK-4065,PAYLOAD,2023-05-05 21:14:22,15.08836781,0.0001137,53.2176,17.4935,89.5771,270.5352,0.00017652,2.522e-05,0.0,0 STARLINK-4065,1 52841U 22062M   23125.88498750  .00002522  00000-0  17652-3 0  9999,2 52841  53.2176  17.4935 0001137  89.5771 270.5352 15.08836781 48962,6917.89,95.438,540.542,538.969,0.0
52841.0,STARLINK-4065,PAYLOAD,2023-05-06 00:25:09,15.08838474,0.0001102,53.2179,16.898,89.4006,270.7113,9.5601e-05,1.234e-05,0.0,0 STARLINK-4065,1 52841U 22062M   23126.01746833  .00001234  00000-0  95601-4 0  9993,2 52841  53.2179  16.8980 0001102  89.4006 270.7113 15.08838474 49475,6917.885,95.438,540.512,538.988,0.0
52841.0,STARLINK-4065,PAYLOAD,2023-05-07 01:51:17,15.08861999,0.0001056,53.2171,12.1396,96.9202,263.1911,5.9039e-05,6.52e-06,0.0,0 STARLINK-4065,1 52841U 22062M   23127.07729062  .00000652  00000-0  59039-4 0  9993,2 52841  53.2171  12.1396 0001056  96.9202 263.1911 15.08861999 49634,6917.813,95.436,540.409,538.948,0.0
52841.0,STARLINK-4065,PAYLOAD,2023-05-07 20:55:57,15.08832833,0.0001037,53.218,8.5721,92.922,267.1891,-1.5791e-05,-5.39e-06,0.0,0 STARLINK-4065,1 52841U 22062M   23127.87219221 -.00000539  00000-0 -15791-4 0  9995,2 52841  53.2180   8.5721 0001037  92.9220 267.1891 15.08832833 49759,6917.902,95.438,540.485,539.05,0.0
52841.0,STARLINK-4065,PAYLOAD,2023-05-07 22:31:20,15.08833403,0.0001063,53.218,8.2744,98.7819,261.3294,-1.3288e-05,-4.99e-06,0.0,0 STARLINK-4065,1 52841U 22062M   23127.93843184 -.00000499  00000-0 -13288-4 0  9997,2 52841  53.2180   8.2744 0001063  98.7819 261.3294 15.08833403 49272,6917.901,95.438,540.501,539.03,0.0
52841.0,STARLINK-4065,PAYLOAD,2023-05-08 22:22:06,15.0884972,0.0001105,53.2176,3.8137,104.2957,255.8158,3.6226e-05,2.89e-06,0.0,0 STARLINK-4065,1 52841U 22062M   23128.93202148  .00000289  00000-0  36226-4 0  9999,2 52841  53.2176   3.8137 0001105 104.2957 255.8158 15.08849720 49420,6917.851,95.437,540.48,538.951,0.0
52841.0,STARLINK-4065,PAYLOAD,2023-05-09 22:12:54,15.08839676,0.0001039,53.2171,359.355,96.2812,263.8298,0.00013681,1.89e-05,0.0,0 STARLINK-4065,1 52841U 22062M   23129.92562789  .00001890  00000-0  13681-3 0  9997,2 52841  53.2171 359.3550 0001039  96.2812 263.8298 15.08839676 49578,6917.881,95.438,540.465,539.028,0.0
52841.0,STARLINK-4065,PAYLOAD,2023-05-10 22:03:41,15.08847719,0.0001055,53.2175,354.8951,94.2057,265.9056,5.2956e-05,5.55e-06,0.0,0 STARLINK-4065,1 52841U 22062M   23130.91922741  .00000555  00000-0  52956-4 0  9992,2 52841  53.2175 354.8951 0001055  94.2057 265.9056 15.08847719 49723,6917.857,95.437,540.452,538.992,0.0
52841.0,STARLINK-4065,PAYLOAD,2023-05-11 21:54:29,15.08841537,9.9e-05,53.2169,350.4345,84.3177,275.7928,-4.3221e-05,-9.76e-06,0.0,0 STARLINK-4065,1 52841U 22062M   23131.91283598 -.00000976  00000-0 -43221-4 0  9997,2 52841  53.2169 350.4345 0000990  84.3177 275.7928 15.08841537 50366,6917.876,95.437,540.426,539.056,0.0
52841.0,STARLINK-4065,PAYLOAD,2023-05-12 18:34:29,15.08841631,9.97e-05,53.2176,346.5687,98.1419,261.9686,7.6893e-05,9.36e-06,0.0,0 STARLINK-4065,1 52841U 22062M   23132.77395432  .00000936  00000-0  76893-4 0  9998,2 52841  53.2176 346.5687 0000997  98.1419 261.9686 15.08841631 50002,6917.875,95.437,540.43,539.051,0.0
52841.0,STARLINK-4065,PAYLOAD,2023-05-12 21:45:15,15.08848187,9.97e-05,53.217,345.9738,86.0398,274.0708,0.0001096,1.457e-05,0.0,0 STARLINK-4065,1 52841U 22062M   23132.90642990  .00001457  00000-0  10960-3 0  9998,2 52841  53.2170 345.9738 0000997  86.0398 274.0708 15.08848187 50517,6917.855,95.437,540.41,539.031,0.0
52841.0,STARLINK-4065,PAYLOAD,2023-05-13 21:36:02,15.08841915,9.81e-05,53.2176,341.5132,76.813,283.2971,7.4209e-05,8.94e-06,0.0,0 STARLINK-4065,1 52841U 22062M   23133.90003417  .00000894  00000-0  74209-4 0  9995,2 52841  53.2176 341.5132 0000981  76.8130 283.2971 15.08841915 50175,6917.875,95.437,540.418,539.061,0.0
52841.0,STARLINK-4065,PAYLOAD,2023-05-14 19:51:26,15.0884614,0.0001154,53.2176,337.3512,78.8528,281.2594,1.2002e-05,-9.7e-07,0.0,0 STARLINK-4065,1 52841U 22062M   23134.82739347 -.00000097  00000-0  12002-4 0  9994,2 52841  53.2176 337.3512 0001154  78.8528 281.2594 15.08846140 50316,6917.862,95.437,540.525,538.928,0.0
52841.0,STARLINK-4065,PAYLOAD,2023-05-14 23:02:12,15.08846366,0.0001091,53.2174,336.7528,107.6142,252.4969,8.8897e-05,1.128e-05,0.0,0 STARLINK-4065,1 52841U 22062M   23134.95986915  .00001128  00000-0  88897-4 0  9993,2 52841  53.2174 336.7528 0001091 107.6142 252.4969 15.08846366 50829,6917.861,95.437,540.481,538.971,0.0
52841.0,STARLINK-4065,PAYLOAD,2023-05-15 13:20:41,15.08836695,0.0001209,53.2176,334.0782,85.6787,274.4344,1.7545e-05,-9e-08,0.0,0 STARLINK-4065,1 52841U 22062M   23135.55603902 -.00000009  00000-0  17545-4 0  9992,2 52841  53.2176 334.0782 0001209  85.6787 274.4344 15.08836695 50910,6917.89,95.438,540.592,538.919,0.0
52841.0,STARLINK-4065,PAYLOAD,2023-05-15 19:42:14,15.08838601,0.0001189,53.2174,332.8886,86.6988,273.414,3.4373e-05,2.59e-06,0.0,0 STARLINK-4065,1 52841U 22062M   23135.82099761  .00000259  00000-0  34373-4 0  9998,2 52841  53.2174 332.8886 0001189  86.6988 273.4140 15.08838601 50462,6917.885,95.438,540.572,538.927,0.0
52841.0,STARLINK-4065,PAYLOAD,2023-05-16 19:33:00,15.08850278,0.0001158,53.2183,328.4284,84.2383,275.8741,-4.0137e-07,-2.94e-06,0.0,0 STARLINK-4065,1 52841U 22062M   23136.81459076 -.00000294  00000-0 -40137-6 0  9995,2 52841  53.2183 328.4284 0001158  84.2383 275.8741 15.08850278 51103,6917.849,95.437,540.515,538.913,0.0
52841.0,STARLINK-4065,PAYLOAD,2023-05-17 03:29:57,15.08831823,0.0001075,53.2168,326.941,87.0728,273.0388,-8.3855e-05,-1.622e-05,0.0,0 STARLINK-4065,1 52841U 22062M   23137.14580317 -.00001622  00000-0 -83855-4 0  9993,2 52841  53.2168 326.9410 0001075  87.0728 273.0388 15.08831823 51159,6917.905,95.438,540.514,539.027,0.0
52841.0,STARLINK-4065,PAYLOAD,2023-05-17 19:23:48,15.08840043,0.0001092,53.2163,323.9679,85.106,275.0057,9.6875e-05,1.254e-05,0.0,0 STARLINK-4065,1 52841U 22062M   23137.80819701  .00001254  00000-0  96875-4 0  9993,2 52841  53.2163 323.9679 0001092  85.1060 275.0057 15.08840043 51255,6917.88,95.438,540.501,538.99,0.0
52841.0,STARLINK-4065,PAYLOAD,2023-05-17 20:59:11,15.08842922,0.0001027,53.2163,323.6703,83.773,276.338,0.0001427,1.984e-05,0.0,0 STARLINK-4065,1 52841U 22062M   23137.87443621  .00001984  00000-0  14270-3 0  9992,2 52841  53.2163 323.6703 0001027  83.7730 276.3380 15.08842922 50773,6917.871,95.437,540.447,539.026,0.0
52841.0,STARLINK-4065,PAYLOAD,2023-05-18 04:56:07,15.08838888,0.0001126,53.2164,322.1822,84.8357,275.2763,5.366e-05,5.66e-06,0.0,0 STARLINK-4065,1 52841U 22062M   23138.20563716  .00000566  00000-0  53660-4 0  9990,2 52841  53.2164 322.1822 0001126  84.8357 275.2763 15.08838888 50822,6917.884,95.438,540.528,538.97,0.0
52841.0,STARLINK-4065,PAYLOAD,2023-05-18 19:14:35,15.08842608,9.35e-05,53.2162,319.5062,89.687,270.4229,0.00014381,2.002e-05,0.0,0 STARLINK-4065,1 52841U 22062M   23138.80179627  .00002002  00000-0  14381-3 0  9993,2 52841  53.2162 319.5062 0000935  89.6870 270.4229 15.08842608 50915,6917.872,95.437,540.384,539.091,0.0
